{"type": "FeatureCollection", "features": [{"type": "Feature", "properties": {"norad_id": 32275, "name": "COSMOS 2433 (720)", "group": "glo-ops", "lat": -52.87300438825835, "lon": 179.00983988691652, "alt_km": 19122.135033024217, "timestamp": "2025-12-08T05:48:09.295596+00:00", "meta": {"OBJECT_NAME": "COSMOS 2433 (720)", "OBJECT_ID": "2007-052A", "EPOCH": "2025-12-06T23:44:11.537952", "MEAN_MOTION": 2.13103921, "ECCENTRICITY": 0.00054556, "INCLINATION": 65.6864, "RA_OF_ASC_NODE": 322.3989, "ARG_OF_PERICENTER": 253.5069, "MEAN_ANOMALY": 106.429, "EPHEMERIS_TYPE": 0, "CLASSIFICATION_TYPE": "U", "NORAD_CAT_ID": 32275, "ELEMENT_SET_NO": 999, "REV_AT_EPOCH": 14096, "BSTAR": 0, "MEAN_MOTION_DOT": -5e-07, "MEAN_MOTION_DDOT": 0}, "tle": {"line1": "1 32275U 07052A   25340.98902243 -.00000050  00000+0  00000+0 0  9998", "line2": "2 32275  65.6864 322.3989 0005455 253.5069 106.4290  2.13103921140965"}}, "geometry": {"type": "Point", "coordinates": [179.00983988691652, -52.87300438825835]}}, {"type": "Feature", "properties": {"norad_id": 32276, "name": "COSMOS 2432 (719)", "group": "glo-ops", "lat": -4.962656826254561, "lon": 144.71716593962287, "alt_km": 19148.196417525563, "timestamp": "2025-12-08T05:48:09.295619+00:00", "meta": {"OBJECT_NAME": "COSMOS 2432 (719)", "OBJECT_ID": "2007-052B", "EPOCH": "2025-12-07T02:45:37.162080", "MEAN_MOTION": 2.13103072, "ECCENTRICITY": 0.00112789, "INCLINATION": 65.7022, "RA_OF_ASC_NODE": 322.5187, "ARG_OF_PERICENTER": 312.1761, "MEAN_ANOMALY": 88.8989, "EPHEMERIS_TYPE": 0, "CLASSIFICATION_TYPE": "U", "NORAD_CAT_ID": 32276, "ELEMENT_SET_NO": 999, "REV_AT_EPOCH": 14099, "BSTAR": 0, "MEAN_MOTION_DOT": -5e-07, "MEAN_MOTION_DDOT": 0}, "tle": {"line1": "1 32276U 07052B   25341.11501345 -.00000050  00000+0  00000+0 0  9993", "line2": "2 32276  65.7022 322.5187 0011278 312.1761  88.8989  2.13103072140994"}}, "geometry": {"type": "Point", "coordinates": [144.71716593962287, -4.962656826254561]}}, {"type": "Feature", "properties": {"norad_id": 32393, "name": "COSMOS 2434 (721)", "group": "glo-ops", "lat": 42.303119087313405, "lon": -7.617200903756504, "alt_km": 19119.460242194473, "timestamp": "2025-12-08T05:48:09.295634+00:00", "meta": {"OBJECT_NAME": "COSMOS 2434 (721)", "OBJECT_ID": "2007-065A", "EPOCH": "2025-12-07T08:44:57.197760", "MEAN_MOTION": 2.13101207, "ECCENTRICITY": 0.00044814, "INCLINATION": 64.3148, "RA_OF_ASC_NODE": 198.3849, "ARG_OF_PERICENTER": 71.0403, "MEAN_ANOMALY": 107.6412, "EPHEMERIS_TYPE": 0, "CLASSIFICATION_TYPE": "U", "NORAD_CAT_ID": 32393, "ELEMENT_SET_NO": 999, "REV_AT_EPOCH": 13968, "BSTAR": 0, "MEAN_MOTION_DOT": 6e-07, "MEAN_MOTION_DDOT": 0}, "tle": {"line1": "1 32393U 07065A   25341.36455090  .00000060  00000+0  00000+0 0  9999", "line2": "2 32393  64.3148 198.3849 0004481  71.0403 107.6412  2.13101207139687"}}, "geometry": {"type": "Point", "coordinates": [-7.617200903756504, 42.303119087313405]}}, {"type": "Feature", "properties": {"norad_id": 32395, "name": "COSMOS 2436 (723)", "group": "glo-ops", "lat": -63.76627241880437, "lon": 95.93160547724652, "alt_km": 19148.031852516495, "timestamp": "2025-12-08T05:48:09.295647+00:00", "meta": {"OBJECT_NAME": "COSMOS 2436 (723)", "OBJECT_ID": "2007-065C", "EPOCH": "2025-12-07T03:33:41.330592", "MEAN_MOTION": 2.13100006, "ECCENTRICITY": 0.00177394, "INCLINATION": 64.3236, "RA_OF_ASC_NODE": 198.4623, "ARG_OF_PERICENTER": 9.1382, "MEAN_ANOMALY": 136.8175, "EPHEMERIS_TYPE": 0, "CLASSIFICATION_TYPE": "U", "NORAD_CAT_ID": 32395, "ELEMENT_SET_NO": 999, "REV_AT_EPOCH": 13963, "BSTAR": 0, "MEAN_MOTION_DOT": 6.2e-07, "MEAN_MOTION_DDOT": 0}, "tle": {"line1": "1 32395U 07065C   25341.14839503  .00000062  00000+0  00000+0 0  9994", "line2": "2 32395  64.3236 198.4623 0017739   9.1382 136.8175  2.13100006139637"}}, "geometry": {"type": "Point", "coordinates": [95.93160547724652, -63.76627241880437]}}, {"type": "Feature", "properties": {"norad_id": 36111, "name": "COSMOS 2456 (730)", "group": "glo-ops", "lat": -59.078228738433225, "lon": 26.115222867936094, "alt_km": 19128.45486250594, "timestamp": "2025-12-08T05:48:09.295659+00:00", "meta": {"OBJECT_NAME": "COSMOS 2456 (730)", "OBJECT_ID": "2009-070A", "EPOCH": "2025-12-07T20:44:40.162272", "MEAN_MOTION": 2.13103432, "ECCENTRICITY": 0.00030434, "INCLINATION": 64.8974, "RA_OF_ASC_NODE": 77.5047, "ARG_OF_PERICENTER": 297.6461, "MEAN_ANOMALY": 61.5166, "EPHEMERIS_TYPE": 0, "CLASSIFICATION_TYPE": "U", "NORAD_CAT_ID": 36111, "ELEMENT_SET_NO": 999, "REV_AT_EPOCH": 12434, "BSTAR": 0, "MEAN_MOTION_DOT": -1.5e-07, "MEAN_MOTION_DDOT": 0}, "tle": {"line1": "1 36111U 09070A   25341.86435373 -.00000015  00000+0  00000+0 0  9997", "line2": "2 36111  64.8974  77.5047 0003043 297.6461  61.5166  2.13103432124345"}}, "geometry": {"type": "Point", "coordinates": [26.115222867936094, -59.078228738433225]}}, {"type": "Feature", "properties": {"norad_id": 36112, "name": "COSMOS 2457 (733)", "group": "glo-ops", "lat": 50.0516316705027, "lon": 111.34494640349588, "alt_km": 19126.44283600991, "timestamp": "2025-12-08T05:48:09.295671+00:00", "meta": {"OBJECT_NAME": "COSMOS 2457 (733)", "OBJECT_ID": "2009-070B", "EPOCH": "2025-12-07T05:33:13.940640", "MEAN_MOTION": 2.13100799, "ECCENTRICITY": 0.00047672, "INCLINATION": 64.8824, "RA_OF_ASC_NODE": 77.374, "ARG_OF_PERICENTER": 157.9691, "MEAN_ANOMALY": 204.8145, "EPHEMERIS_TYPE": 0, "CLASSIFICATION_TYPE": "U", "NORAD_CAT_ID": 36112, "ELEMENT_SET_NO": 999, "REV_AT_EPOCH": 12434, "BSTAR": 0, "MEAN_MOTION_DOT": -1.6e-07, "MEAN_MOTION_DDOT": 0}, "tle": {"line1": "1 36112U 09070B   25341.23141135 -.00000016  00000+0  00000+0 0  9990", "line2": "2 36112  64.8824  77.3740 0004767 157.9691 204.8145  2.13100799124347"}}, "geometry": {"type": "Point", "coordinates": [111.34494640349588, 50.0516316705027]}}, {"type": "Feature", "properties": {"norad_id": 36402, "name": "COSMOS 2460 (732)", "group": "glo-ops", "lat": 50.016777047733584, "lon": -6.206885944913788, "alt_km": 19129.456796427417, "timestamp": "2025-12-08T05:48:09.295683+00:00", "meta": {"OBJECT_NAME": "COSMOS 2460 (732)", "OBJECT_ID": "2010-007C", "EPOCH": "2025-12-07T11:08:59.841600", "MEAN_MOTION": 2.13106055, "ECCENTRICITY": 0.00027105, "INCLINATION": 65.5326, "RA_OF_ASC_NODE": 320.9516, "ARG_OF_PERICENTER": 273.9316, "MEAN_ANOMALY": 267.1288, "EPHEMERIS_TYPE": 0, "CLASSIFICATION_TYPE": "U", "NORAD_CAT_ID": 36402, "ELEMENT_SET_NO": 999, "REV_AT_EPOCH": 12264, "BSTAR": 0, "MEAN_MOTION_DOT": -4.9e-07, "MEAN_MOTION_DDOT": 0}, "tle": {"line1": "1 36402U 10007C   25341.46458150 -.00000049  00000+0  00000+0 0  9993", "line2": "2 36402  65.5326 320.9516 0002710 273.9316 267.1288  2.13106055122643"}}, "geometry": {"type": "Point", "coordinates": [-6.206885944913788, 50.016777047733584]}}, {"type": "Feature", "properties": {"norad_id": 37867, "name": "COSMOS 2476 (744)", "group": "glo-ops", "lat": -15.354972802720768, "lon": -93.37398201601877, "alt_km": 19083.217118915756, "timestamp": "2025-12-08T05:48:09.295694+00:00", "meta": {"OBJECT_NAME": "COSMOS 2476 (744)", "OBJECT_ID": "2011-064A", "EPOCH": "2025-12-07T12:05:38.490144", "MEAN_MOTION": 2.13101284, "ECCENTRICITY": 0.0024092, "INCLINATION": 65.1595, "RA_OF_ASC_NODE": 79.3486, "ARG_OF_PERICENTER": 233.8995, "MEAN_ANOMALY": 117.1284, "EPHEMERIS_TYPE": 0, "CLASSIFICATION_TYPE": "U", "NORAD_CAT_ID": 37867, "ELEMENT_SET_NO": 999, "REV_AT_EPOCH": 10967, "BSTAR": 0, "MEAN_MOTION_DOT": -1.2e-07, "MEAN_MOTION_DDOT": 0}, "tle": {"line1": "1 37867U 11064A   25341.50391771 -.00000012  00000+0  00000+0 0  9993", "line2": "2 37867  65.1595  79.3486 0024092 233.8995 117.1284  2.13101284109676"}}, "geometry": {"type": "Point", "coordinates": [-93.37398201601877, -15.354972802720768]}}, {"type": "Feature", "properties": {"norad_id": 37868, "name": "COSMOS 2477 (745)", "group": "glo-ops", "lat": 16.40077295025468, "lon": 87.22870958717854, "alt_km": 19171.70344936557, "timestamp": "2025-12-08T05:48:09.295705+00:00", "meta": {"OBJECT_NAME": "COSMOS 2477 (745)", "OBJECT_ID": "2011-064B", "EPOCH": "2025-12-07T23:52:45.427008", "MEAN_MOTION": 2.13102702, "ECCENTRICITY": 0.00211763, "INCLINATION": 65.1661, "RA_OF_ASC_NODE": 79.4096, "ARG_OF_PERICENTER": 234.5496, "MEAN_ANOMALY": 314.1036, "EPHEMERIS_TYPE": 0, "CLASSIFICATION_TYPE": "U", "NORAD_CAT_ID": 37868, "ELEMENT_SET_NO": 999, "REV_AT_EPOCH": 10968, "BSTAR": 0, "MEAN_MOTION_DOT": -1.2e-07, "MEAN_MOTION_DDOT": 0}, "tle": {"line1": "1 37868U 11064B   25341.99497022 -.00000012  00000+0  00000+0 0  9993", "line2": "2 37868  65.1661  79.4096 0021176 234.5496 314.1036  2.13102702109684"}}, "geometry": {"type": "Point", "coordinates": [87.22870958717854, 16.40077295025468]}}, {"type": "Feature", "properties": {"norad_id": 37869, "name": "COSMOS 2475 (743)", "group": "glo-ops", "lat": -23.22742740568816, "lon": 67.98719195010884, "alt_km": 19128.238577973978, "timestamp": "2025-12-08T05:48:09.295716+00:00", "meta": {"OBJECT_NAME": "COSMOS 2475 (743)", "OBJECT_ID": "2011-064C", "EPOCH": "2025-12-07T08:11:48.953184", "MEAN_MOTION": 2.13101364, "ECCENTRICITY": 0.00262336, "INCLINATION": 65.1729, "RA_OF_ASC_NODE": 79.4516, "ARG_OF_PERICENTER": 248.5614, "MEAN_ANOMALY": 114.7737, "EPHEMERIS_TYPE": 0, "CLASSIFICATION_TYPE": "U", "NORAD_CAT_ID": 37869, "ELEMENT_SET_NO": 999, "REV_AT_EPOCH": 10968, "BSTAR": 0, "MEAN_MOTION_DOT": -1.3e-07, "MEAN_MOTION_DDOT": 0}, "tle": {"line1": "1 37869U 11064C   25341.34153881 -.00000013  00000+0  00000+0 0  9996", "line2": "2 37869  65.1729  79.4516 0026233 248.5614 114.7737  2.13101364109688"}}, "geometry": {"type": "Point", "coordinates": [67.98719195010884, -23.22742740568816]}}]}